STARLINK-36840          
1 67850U 26034A   26079.50001157 -.01929167  00000+0 -15289-1 0  9996
2 67850  53.1593 157.2242 0001185  57.1014  42.8328 15.74029497  5640
STARLINK-36348          
1 67851U 26034B   26079.50001157 -.01957818  00000+0 -18205-1 0  9992
2 67851  53.1592 157.2818 0001157  57.2604  14.3549 15.69798355  5597
STARLINK-36276          
1 67852U 26034C   26079.50001157 -.01963321  00000+0 -19207-1 0  9992
2 67852  53.1591 157.2978 0001254  51.8851  11.8179 15.68589413  5599
STARLINK-36785          
1 67853U 26034D   26079.60312131  .00329289  00000+0  15986-2 0  9998
2 67853  53.1577 156.6370 0000244 261.4095  98.6900 15.81012548  5668
STARLINK-36608          
1 67854U 26034E   26079.60237406  .00274095  00000+0  13428-2 0  9993
2 67854  53.1573 156.6317 0000811  95.5534 264.5581 15.80966534  5650
STARLINK-36838          
1 67855U 26034F   26079.47518597  .00100879  00000+0  50719-3 0  9995
2 67855  53.1580 157.2599 0001250 115.9218 244.1933 15.80937293  5646
STARLINK-36843          
1 67856U 26034G   26078.52541332 -.00212234  00000+0 -11055-2 0  9994
2 67856  53.1587 162.0024 0003343 124.5278 235.6060 15.80719083  5492
STARLINK-36828          
1 67857U 26034H   26079.41122002  .00312189  00000+0  15262-2 0  9995
2 67857  53.1584 157.5727 0001024  79.8898 280.2240 15.80908231  5630
STARLINK-36837          
1 67858U 26034J   26079.50001157 -.01944686  00000+0 -13311-1 0  9991
2 67858  53.1589 157.1223 0001085  78.1475  70.7736 15.77357566  5595
STARLINK-36393          
1 67859U 26034K   26079.40897052  .00330925  00000+0  16144-2 0  9998
2 67859  53.1584 157.5564 0001117  77.4625 282.6522 15.80904453  5637
STARLINK-35873          
1 67860U 26034L   26079.59787658  .00348712  00000+0  16917-2 0  9991
2 67860  53.1577 156.6016 0001599  72.9093 287.2105 15.80978761  5693
STARLINK-36325          
1 67861U 26034M   26079.40746763  .00281036  00000+0  13695-2 0  9999
2 67861  53.1582 157.5458 0001608 159.4234 200.6854 15.81063637  5631
STARLINK-36332          
1 67862U 26034N   26079.59637758  .00295211  00000+0  14434-2 0  9995
2 67862  53.1584 156.5906 0001743  87.3882 272.7341 15.80952237  5665
STARLINK-36835          
1 67863U 26034P   26079.40596821  .00283750  00000+0  13821-2 0  9995
2 67863  53.1589 157.5351 0001244 147.7280 212.3820 15.81065455  5632
STARLINK-36831          
1 67864U 26034Q   26079.40521610  .00300216  00000+0  14585-2 0  9995
2 67864  53.1584 157.5306 0001371 164.7882 195.3182 15.81077630  5635
STARLINK-36738          
1 67865U 26034R   26079.40446762  .00249122  00000+0  12201-2 0  9991
2 67865  53.1593 157.5251 0000955 138.7197 221.3898 15.81042745  5635
STARLINK-36780          
1 67866U 26034S   26079.40371828  .00301695  00000+0  14656-2 0  9992
2 67866  53.1594 157.5203 0001084 157.3763 202.7307 15.81074848  5631
STARLINK-36761          
1 67867U 26034T   26079.59262802  .00319058  00000+0  15582-2 0  9995
2 67867  53.1594 156.5644 0001589  71.6832 288.4364 15.80913483  5668
STARLINK-36762          
1 67868U 26034U   26079.40221912  .00355211  00000+0  17280-2 0  9991
2 67868  53.1588 157.5096 0000962  45.3818 314.7283 15.80900224  5639
STARLINK-36779          
1 67869U 26034V   26079.59112574  .00328734  00000+0  15992-2 0  9993
2 67869  53.1583 156.5540 0001571  77.3793 282.7405 15.80971611  5663
STARLINK-36770          
1 67870U 26034W   26079.58962914  .00291734  00000+0  14290-2 0  9994
2 67870  53.1589 156.5450 0002240  24.9473 335.1657 15.80921220  5661
STARLINK-36769          
1 67871U 26034X   26079.52715624  .00383178  00000+0  18551-2 0  9991
2 67871  53.1594 156.8660 0001335  97.7569 262.3606 15.80930420  5658
STARLINK-36786          
1 67872U 26034Y   26079.58887529  .00194911  00000+0  96624-3 0  9995
2 67872  53.1576 156.5391 0001365  95.6286 264.4893 15.80933133  5669
STARLINK-36783          
1 67873U 26034Z   26079.58812676  .00320969  00000+0  15652-2 0  9992
2 67873  53.1586 156.5335 0001459  60.1407 299.9760 15.80940368  5669
STARLINK-36730          
1 67874U 26034AA  26079.58736803  .00221956  00000+0  10946-2 0  9997
2 67874  53.1582 156.5286 0001598  48.4172 311.6988 15.80968065  5661
STARLINK-36727          
1 67875U 26034AB  26079.58662589  .00317114  00000+0  15484-2 0  9991
2 67875  53.1579 156.5237 0001468  56.0262 304.0900 15.80921824  5667
STARLINK-36743          
1 67876U 26034AC  26079.58587435  .00193507  00000+0  95994-3 0  9991
2 67876  53.1586 156.5180 0001382  95.9031 264.2149 15.80922288  5661
STARLINK-36784          
1 67877U 26034AD  26079.50001157 -.01956365  00000+0 -17117-1 0  9997
2 67877  53.1594 157.0240 0001251  69.9265 125.5816 15.71235370  5590
STARLINK-36689          
1 67878U 26034AE  26079.58437494  .00272245  00000+0  13350-2 0  9994
2 67878  53.1586 156.5088 0001552  68.8688 291.2500 15.80951537  5666
STARLINK-36818          
1 67879U 26035A   26079.56171570  .00137483  00000+0  90635-3 0  9990
2 67879  97.2876  12.4752 0001503  98.5926 261.5509 15.75228139  5553
STARLINK-36821          
1 67880U 26035B   26079.55889119  .00233763  00000+0  15245-2 0  9997
2 67880  97.2897  12.4802 0002437  82.4533 277.7010 15.75206447  5551
STARLINK-36808          
1 67881U 26035C   26079.53854299  .00227323  00000+0  11524-2 0  9998
2 67881  97.2898  12.5054 0001482  81.2731 278.8705 15.80901363  5557
STARLINK-36817          
1 67882U 26035D   26079.50001157 -.00033804  00000+0 -22651-3 0  9998
2 67882  97.2863  12.4645 0001711  93.1489  41.3162 15.75204633  5495
STARLINK-36856          
1 67883U 26035E   26079.50001157  .00004177  00000+0  28846-4 0  9991
2 67883  97.2867  12.4594 0001425  85.7318  32.7377 15.75200612  5498
STARLINK-36842          
1 67884U 26035F   26079.55607328  .00211749  00000+0  13823-2 0  9991
2 67884  97.2880  12.4823 0002020  93.6131 266.5365 15.75245035  5551
STARLINK-36826          
1 67885U 26035G   26079.58335648 -.00060675  00000+0 -40832-3 0  9991
2 67885  97.2871  12.5339 0001539  93.2446 111.5293 15.75216942  5514
STARLINK-36390          
1 67886U 26035H   26079.55395488  .00281205  00000+0  18178-2 0  9996
2 67886  97.2869  12.4843 0002289  81.5639 278.5886 15.75278062  5555
STARLINK-36368          
1 67887U 26035J   26079.53329078  .00341378  00000+0  17053-2 0  9996
2 67887  97.2893  12.5105 0002989  62.2004 297.9567 15.80927912  5556
STARLINK-36801          
1 67888U 26035K   26079.53368060  .00226094  00000+0  13671-2 0  9990
2 67888  97.2879  12.5088 0004058 192.4750 167.6416 15.76958251  5555
STARLINK-36372          
1 67889U 26035L   26079.50001157  .00080672  00000+0  53682-3 0  9996
2 67889  97.2870  12.4691 0001652 104.0146  46.4431 15.75181833  5498
STARLINK-36363          
1 67890U 26035M   26079.55042391  .00214759  00000+0  14011-2 0  9995
2 67890  97.2879  12.4895 0001634  81.6761 278.4690 15.75250962  5559
STARLINK-36816          
1 67891U 26035N   26079.58455829  .00365331  00000+0  18188-2 0  9995
2 67891  97.2891  12.5901 0001582 115.5265 244.6167 15.80942298  5562
STARLINK-36813          
1 67892U 26035P   26079.33586548  .00272326  00000+0  13775-2 0  9990
2 67892  97.2893  12.3140 0001806  94.6100 265.5375 15.80832092  5521
STARLINK-36803          
1 67893U 26035Q   26079.53028240  .00442859  00000+0  21877-2 0  9995
2 67893  97.2891  12.5128 0002619  75.5851 284.5707 15.80913215  5552
STARLINK-36846          
1 67894U 26035R   26079.55218821  .00272455  00000+0  17626-2 0  9994
2 67894  97.2893  12.4845 0001941  78.8184 281.3299 15.75284574  5556
STARLINK-36866          
1 67895U 26035S   26079.35384454  .00195138  00000+0  12795-2 0  9993
2 67895  97.2875  12.2934 0002507 100.4227 259.7321 15.75188628  5528
STARLINK-36877          
1 67896U 26035T   26079.33962093  .00296137  00000+0  14951-2 0  9990
2 67896  97.2894  12.3125 0001260  91.2304 268.9109 15.80812527  5525
STARLINK-36870          
1 67897U 26035U   26079.33736612  .00309599  00000+0  15709-2 0  9996
2 67897  97.2889  12.3136 0001040 148.6152 211.5178 15.80667304  5527
STARLINK-36810          
1 67898U 26035V   26079.58335648 -.00010273  00000+0 -68065-4 0  9993
2 67898  97.2877  12.5585 0001524 102.7108 172.0581 15.75195835  5511
STARLINK-36878          
1 67899U 26035W   26079.27181523  .00444948  00000+0  21875-2 0  9995
2 67899  97.2896  12.2498 0001504  72.6511 287.4921 15.81013042  5519
STARLINK-36361          
1 67900U 26035X   26079.33435792  .00278058  00000+0  14058-2 0  9997
2 67900  97.2889  12.3176 0001778 136.8280 223.3128 15.80829310  5528
STARLINK-36336          
1 67901U 26035Y   26079.58335648 -.00007132  00000+0 -46992-4 0  9993
2 67901  97.2868  12.5751 0001483  92.7940 215.9810 15.75186724  5561
STARLINK-36876          
1 67902U 26035Z   26079.58680206  .00424141  00000+0  20929-2 0  9998
2 67902  97.2883  12.5886 0003653 175.0971 185.0334 15.80984139  5568
STARLINK-36257          
1 67903U 26035AA  26079.35525522  .00208026  00000+0  13618-2 0  9992
2 67903  97.2877  12.2923 0001804  94.4720 265.6751 15.75191522  5527
STARLINK-36814          
1 67904U 26036A   26079.36000448  .00074388  00000+0  12600-2 0  9992
2 67904  43.0011 186.7900 0002635 285.8456  74.2114 15.50618081  5337
STARLINK-36729          
1 67905U 26036B   26079.50001157 -.00074646  00000+0 -12780-2 0  9995
2 67905  43.0001 185.3258 0001252 278.6074  46.1014 15.50595996  5389
STARLINK-36763          
1 67906U 26036C   26079.58335648  .00082570  00000+0  14001-2 0  9990
2 67906  43.0000 184.7649 0001842 287.1220 173.0688 15.50546481  5392
STARLINK-36742          
1 67907U 26036D   26079.58335648 -.00055554  00000+0 -94766-3 0  9992
2 67907  43.0002 184.8161 0001096 275.4657 164.2549 15.50585389  5398
STARLINK-36827          
1 67908U 26036E   26079.58335648 -.01943217  00000+0 -37132-1 0  9998
2 67908  43.0003 184.5020 0001099 273.2575 293.1866 15.50448657  5399
